[{"OBJECT_NAME":"TEVEL2-3","OBJECT_ID":"2025-052J","EPOCH":"2026-03-09T15:29:22.754400","MEAN_MOTION":15.30377031,"ECCENTRICITY":0.0004761,"INCLINATION":97.3994,"RA_OF_ASC_NODE":324.7775,"ARG_OF_PERICENTER":105.7353,"MEAN_ANOMALY":254.4413,"EPHEMERIS_TYPE":0,"CLASSIFICATION_TYPE":"U","NORAD_CAT_ID":63218,"ELEMENT_SET_NO":999,"REV_AT_EPOCH":5485,"BSTAR":0.00069446,"MEAN_MOTION_DOT":0.00020365,"MEAN_MOTION_DDOT":0},{"OBJECT_NAME":"STARLINK-34999","OBJECT_ID":"2025-176AA","EPOCH":"2026-03-09T11:22:30.515520","MEAN_MOTION":15.3020511,"ECCENTRICITY":0.00013076,"INCLINATION":53.1599,"RA_OF_ASC_NODE":153.9922,"ARG_OF_PERICENTER":105.6394,"MEAN_ANOMALY":254.4751,"EPHEMERIS_TYPE":0,"CLASSIFICATION_TYPE":"U","NORAD_CAT_ID":65222,"ELEMENT_SET_NO":999,"REV_AT_EPOCH":3308,"BSTAR":0.00053500847,"MEAN_MOTION_DOT":0.00015522,"MEAN_MOTION_DDOT":0}]
